FENGYUN 1C DEB          
1 30816U 99025AVA 26095.76313968  .00003661  00000+0  17553-2 0  9996
2 30816  98.9006 171.7012 0053695  90.7268  29.0862 14.18831938980102
FENGYUN 1C DEB          
1 30817U 99025AVB 26095.73103994  .00000423  00000+0  30772-3 0  9992
2 30817  98.7875  86.5750 0057815 288.7316  70.7581 14.00810679975057
FENGYUN 1C DEB          
1 30820U 99025AVE 26094.55800904  .00006347  00000+0  28276-2 0  9996
2 30820  98.6708 193.9817 0051506 217.1063 158.4800 14.22434122980275
FENGYUN 1C DEB          
1 30821U 99025AVF 26095.40025881  .00004028  00000+0  99823-3 0  9996
2 30821  99.1174 252.1571 0085250 225.7017 162.4859 14.50370731  4363
FENGYUN 1C DEB          
1 30822U 99025AVG 26095.05154343  .00000624  00000+0  35879-3 0  9993
2 30822  98.7219 125.0222 0072862 324.2966  63.0022 14.11501230983005
FENGYUN 1C DEB          
1 30823U 99025AVH 26095.84007620  .00001100  00000+0  68207-3 0  9997
2 30823  98.7789 237.6561 0134410 125.4321  32.1756 14.02718614976333
FENGYUN 1C DEB          
1 30826U 99025AVL 26095.55052727  .00005317  00000+0  54621-3 0  9995
2 30826  98.8618 307.9712 0141656 355.5947  33.2708 14.83684545 19732
FENGYUN 1C DEB          
1 30827U 99025AVM 26092.94977503  .00011877  00000+0  37439-2 0  9999
2 30827  99.0123  88.8783 0041766 210.5333 149.3421 14.39966169981487
FENGYUN 1C DEB          
1 30828U 99025AVN 26095.25753745  .00023008  00000+0  21560-2 0  9994
2 30828  98.3773 211.8843 0200243 175.5887 215.7667 14.80031720  3192
FENGYUN 1C DEB          
1 30829U 99025AVP 26090.91430976  .00000909  00000+0  54785-3 0  9992
2 30829  98.7859  85.7230 0036336  26.8752 333.4290 14.08830386979703
FENGYUN 1C DEB          
1 30830U 99025AVQ 26095.51088403  .00000533  00000+0  31133-3 0  9994
2 30830  98.7414  86.0225 0029963 225.6883 258.5871 14.12362975982055
FENGYUN 1C DEB          
1 30831U 99025AVR 26095.26878534  .00001075  00000+0  41698-3 0  9998
2 30831  99.3432 261.4368 0055625  67.0769 293.6270 14.31413177668747
FENGYUN 1C DEB          
1 30833U 99025AVT 26095.18666971  .00001289  00000+0  54835-3 0  9995
2 30833  99.8586 260.4335 0032457 220.6248 139.2506 14.27081459660292
FENGYUN 1C DEB          
1 30836U 99025AVW 26095.36467534  .00000710  00000+0  40955-3 0  9998
2 30836  98.7293 130.1352 0024927 282.7883  77.0504 14.12096633636077
FENGYUN 1C DEB          
1 30837U 99025AVX 26095.46347382  .00000687  00000+0  37715-3 0  9991
2 30837  98.6922  83.6032 0032426 167.6839 356.0999 14.14690645984268
FENGYUN 1C DEB          
1 30838U 99025AVY 26095.70729857  .00008725  00000+0  22458-2 0  9998
2 30838  99.0435  22.6461 0034005 176.1930 183.9527 14.50023174989642
